start=new Date('2021-11-04T00:00:00.000Z').valueOf();
sats=[{"OBJECT_NAME":"STARLINK-2459","DECAY_DATE":null,"OBJECT_ID":"2021-027AD","CLASSIFICATION_TYPE":"U","MEAN_MOTION":"15.06393786","FILE":"3200165","COUNTRY_CODE":"US","CENTER_NAME":"EARTH","MEAN_ELEMENT_THEORY":"SGP4","NORAD_CAT_ID":"48119","ARG_OF_PERICENTER":"84.7073","BSTAR":"0.00002365500000","TIME_SYSTEM":"UTC","GP_ID":"188858208","SITE":"AFETR","RCS_SIZE":"LARGE","TLE_LINE2":"2 48119  53.0553  75.2191 0001411  84.7073 275.4077 15.06393786 33519","EPHEMERIS_TYPE":"0","PERIOD":"95.593","APOAPSIS":"548.210","TLE_LINE1":"1 48119U 21027AD  21307.84679657  .00000071  00000-0  23655-4 0  9993","RA_OF_ASC_NODE":"75.2191","ECCENTRICITY":"0.00014110","LAUNCH_DATE":"2021-04-07","MEAN_ANOMALY":"275.4077","PERIAPSIS":"546.255","MEAN_MOTION_DDOT":"0.0000000000000","OBJECT_TYPE":"PAYLOAD","SEMIMAJOR_AXIS":"6925.368","INCLINATION":"53.0553","EPOCH":"2021-11-03T20:19:23.223648","ELEMENT_SET_NO":"999","REV_AT_EPOCH":"3351","MEAN_MOTION_DOT":"0.00000071","REF_FRAME":"TEME"},{"PERIAPSIS":"546.118","MEAN_MOTION_DDOT":"0.0000000000000","ECCENTRICITY":"0.00015880","LAUNCH_DATE":"2021-04-07","MEAN_ANOMALY":"276.4334","REV_AT_EPOCH":"3324","MEAN_MOTION_DOT":"0.00000041","REF_FRAME":"TEME","INCLINATION":"53.0560","OBJECT_TYPE":"PAYLOAD","SEMIMAJOR_AXIS":"6925.353","EPOCH":"2021-11-03T18:51:48.546720","ELEMENT_SET_NO":"999","COUNTRY_CODE":"US","CENTER_NAME":"EARTH","MEAN_ELEMENT_THEORY":"SGP4","ARG_OF_PERICENTER":"83.6836","BSTAR":"0.00002165800000","NORAD_CAT_ID":"48120","OBJECT_NAME":"STARLINK-2460","DECAY_DATE":null,"OBJECT_ID":"2021-027AE","CLASSIFICATION_TYPE":"U","MEAN_MOTION":"15.06398709","FILE":"3200165","RCS_SIZE":"LARGE","TLE_LINE2":"2 48120  53.0560  95.4993 0001588  83.6836 276.4334 15.06398709 33240","SITE":"AFETR","GP_ID":"188858458","EPHEMERIS_TYPE":"0","PERIOD":"95.592","APOAPSIS":"548.317","TLE_LINE1":"1 48120U 21027AE  21307.78597855  .00000041  00000-0  21658-4 0  9995","RA_OF_ASC_NODE":"95.4993","TIME_SYSTEM":"UTC"},{"LAUNCH_DATE":"2021-04-07","MEAN_ANOMALY":"277.7736","ECCENTRICITY":"0.00016840","PERIAPSIS":"546.047","MEAN_MOTION_DDOT":"0.0000000000000","EPOCH":"2021-11-03T19:46:12.658368","ELEMENT_SET_NO":"999","INCLINATION":"53.0562","OBJECT_TYPE":"PAYLOAD","SEMIMAJOR_AXIS":"6925.348","REF_FRAME":"TEME","MEAN_MOTION_DOT":"0.00000466","REV_AT_EPOCH":"3337","MEAN_MOTION":"15.06400134","FILE":"3200165","OBJECT_NAME":"STARLINK-2462","DECAY_DATE":null,"OBJECT_ID":"2021-027AF","CLASSIFICATION_TYPE":"U","BSTAR":"0.00005018300000","ARG_OF_PERICENTER":"82.3444","NORAD_CAT_ID":"48121","COUNTRY_CODE":"US","CENTER_NAME":"EARTH","MEAN_ELEMENT_THEORY":"SGP4","TIME_SYSTEM":"UTC","APOAPSIS":"548.379","TLE_LINE1":"1 48121U 21027AF  21307.82375762  .00000466  00000-0  50183-4 0  9998","RA_OF_ASC_NODE":"85.3303","RCS_SIZE":"LARGE","TLE_LINE2":"2 48121  53.0562  85.3303 0001684  82.3444 277.7736 15.06400134 33374","SITE":"AFETR","GP_ID":"188859710","EPHEMERIS_TYPE":"0","PERIOD":"95.592"},{"REV_AT_EPOCH":"3345","MEAN_MOTION_DOT":"-0.00000689","REF_FRAME":"TEME","OBJECT_TYPE":"PAYLOAD","SEMIMAJOR_AXIS":"6925.369","INCLINATION":"53.0558","EPOCH":"2021-11-03T19:48:10.764576","ELEMENT_SET_NO":"999","PERIAPSIS":"546.369","MEAN_MOTION_DDOT":"0.0000000000000","ECCENTRICITY":"0.00012500","LAUNCH_DATE":"2021-04-07","MEAN_ANOMALY":"272.5015","SITE":"AFETR","GP_ID":"188859961","RCS_SIZE":"LARGE","TLE_LINE2":"2 48122  53.0558  80.3215 0001250  87.6117 272.5015 15.06393220 33450","EPHEMERIS_TYPE":"0","PERIOD":"95.593","APOAPSIS":"548.100","TLE_LINE1":"1 48122U 21027AG  21307.82512459 -.00000689  00000-0 -27389-4 0  9996","RA_OF_ASC_NODE":"80.3215","TIME_SYSTEM":"UTC","COUNTRY_CODE":"US","CENTER_NAME":"EARTH","MEAN_ELEMENT_THEORY":"SGP4","NORAD_CAT_ID":"48122","ARG_OF_PERICENTER":"87.6117","BSTAR":"-0.00002738900000","DECAY_DATE":null,"OBJECT_NAME":"STARLINK-2463","OBJECT_ID":"2021-027AG","CLASSIFICATION_TYPE":"U","MEAN_MOTION":"15.06393220","FILE":"3200165"},{"PERIAPSIS":"546.364","MEAN_MOTION_DDOT":"0.0000000000000","LAUNCH_DATE":"2021-04-07","MEAN_ANOMALY":"286.6519","ECCENTRICITY":"0.00012190","MEAN_MOTION_DOT":"0.00002269","REF_FRAME":"TEME","REV_AT_EPOCH":"3352","EPOCH":"2021-11-03T19:58:09.662592","ELEMENT_SET_NO":"999","INCLINATION":"53.0553","SEMIMAJOR_AXIS":"6925.343","OBJECT_TYPE":"PAYLOAD","ARG_OF_PERICENTER":"73.4604","BSTAR":"0.00017118000000","NORAD_CAT_ID":"48123","MEAN_ELEMENT_THEORY":"SGP4","COUNTRY_CODE":"US","CENTER_NAME":"EARTH","FILE":"3200165","MEAN_MOTION":"15.06401801","OBJECT_NAME":"STARLINK-2464","DECAY_DATE":null,"CLASSIFICATION_TYPE":"U","OBJECT_ID":"2021-027AH","APOAPSIS":"548.052","TLE_LINE1":"1 48123U 21027AH  21307.83205628  .00002269  00000-0  17118-3 0  9997","RA_OF_ASC_NODE":"75.2862","TLE_LINE2":"2 48123  53.0553  75.2862 0001219  73.4604 286.6519 15.06401801 33524","RCS_SIZE":"LARGE","SITE":"AFETR","GP_ID":"188858709","EPHEMERIS_TYPE":"0","PERIOD":"95.592","TIME_SYSTEM":"UTC"},{"TLE_LINE2":"2 48124  53.0564  85.3033 0001365  89.9267 270.1878 15.06389803 33374","RCS_SIZE":"LARGE","SITE":"AFETR","GP_ID":"188858959","EPHEMERIS_TYPE":"0","PERIOD":"95.593","APOAPSIS":"548.190","TLE_LINE1":"1 48124U 21027AJ  21307.83113934  .00000713  00000-0  66794-4 0  9993","RA_OF_ASC_NODE":"85.3033","TIME_SYSTEM":"UTC","COUNTRY_CODE":"US","MEAN_ELEMENT_THEORY":"SGP4","CENTER_NAME":"EARTH","BSTAR":"0.00006679400000","ARG_OF_PERICENTER":"89.9267","NORAD_CAT_ID":"48124","OBJECT_NAME":"STARLINK-2465","DECAY_DATE":null,"OBJECT_ID":"2021-027AJ","CLASSIFICATION_TYPE":"U","FILE":"3200165","MEAN_MOTION":"15.06389803","REV_AT_EPOCH":"3337","MEAN_MOTION_DOT":"0.00000713","REF_FRAME":"TEME","INCLINATION":"53.0564","OBJECT_TYPE":"PAYLOAD","SEMIMAJOR_AXIS":"6925.380","EPOCH":"2021-11-03T19:56:50.438976","ELEMENT_SET_NO":"999","PERIAPSIS":"546.299","MEAN_MOTION_DDOT":"0.0000000000000","ECCENTRICITY":"0.00013650","LAUNCH_DATE":"2021-04-07","MEAN_ANOMALY":"270.1878"},{"ECCENTRICITY":"0.00015130","MEAN_ANOMALY":"272.8039","LAUNCH_DATE":"2021-04-07","MEAN_MOTION_DDOT":"0.0000000000000","PERIAPSIS":"546.168","INCLINATION":"53.0559","SEMIMAJOR_AXIS":"6925.351","OBJECT_TYPE":"PAYLOAD","ELEMENT_SET_NO":"999","EPOCH":"2021-11-03T16:32:27.686112","REV_AT_EPOCH":"3322","MEAN_MOTION_DOT":"0.00002567","REF_FRAME":"TEME","CLASSIFICATION_TYPE":"U","OBJECT_ID":"2021-027AK","OBJECT_NAME":"STARLINK-2466","DECAY_DATE":null,"FILE":"3200165","MEAN_MOTION":"15.06399123","COUNTRY_CODE":"US","CENTER_NAME":"EARTH","MEAN_ELEMENT_THEORY":"SGP4","BSTAR":"0.00019115000000","ARG_OF_PERICENTER":"87.3123","NORAD_CAT_ID":"48125","TIME_SYSTEM":"UTC","PERIOD":"95.592","EPHEMERIS_TYPE":"0","TLE_LINE2":"2 48125  53.0559  95.9339 0001513  87.3123 272.8039 15.06399123 33221","RCS_SIZE":"LARGE","SITE":"AFETR","GP_ID":"188859210","RA_OF_ASC_NODE":"95.9339","TLE_LINE1":"1 48125U 21027AK  21307.68920933  .00002567  00000-0  19115-3 0  9995","APOAPSIS":"548.264"},{"TIME_SYSTEM":"UTC","EPHEMERIS_TYPE":"0","PERIOD":"95.592","GP_ID":"188859461","SITE":"AFETR","TLE_LINE2":"2 48126  53.0530  75.4484 0001317  84.5459 275.5680 15.06401112 33525","RCS_SIZE":"LARGE","RA_OF_ASC_NODE":"75.4484","TLE_LINE1":"1 48126U 21027AL  21307.79888325  .00002657  00000-0  19722-3 0  9990","APOAPSIS":"548.122","CLASSIFICATION_TYPE":"U","OBJECT_ID":"2021-027AL","DECAY_DATE":null,"OBJECT_NAME":"STARLINK-2467","MEAN_MOTION":"15.06401112","FILE":"3200165","MEAN_ELEMENT_THEORY":"SGP4","COUNTRY_CODE":"US","CENTER_NAME":"EARTH","NORAD_CAT_ID":"48126","ARG_OF_PERICENTER":"84.5459","BSTAR":"0.00019722000000","OBJECT_TYPE":"PAYLOAD","SEMIMAJOR_AXIS":"6925.345","INCLINATION":"53.0530","ELEMENT_SET_NO":"999","EPOCH":"2021-11-03T19:10:23.512800","REV_AT_EPOCH":"3352","MEAN_MOTION_DOT":"0.00002657","REF_FRAME":"TEME","ECCENTRICITY":"0.00013170","MEAN_ANOMALY":"275.5680","LAUNCH_DATE":"2021-04-07","MEAN_MOTION_DDOT":"0.0000000000000","PERIAPSIS":"546.298"},{"TIME_SYSTEM":"UTC","RA_OF_ASC_NODE":"95.7815","TLE_LINE1":"1 48127U 21027AM  21307.72331440  .00000871  00000-0  77372-4 0  9997","APOAPSIS":"548.195","PERIOD":"95.592","EPHEMERIS_TYPE":"0","GP_ID":"188858209","SITE":"AFETR","TLE_LINE2":"2 48127  53.0558  95.7815 0001452  77.6114 282.5038 15.06407737 33221","RCS_SIZE":"LARGE","MEAN_MOTION":"15.06407737","FILE":"3200165","OBJECT_ID":"2021-027AM","CLASSIFICATION_TYPE":"U","DECAY_DATE":null,"OBJECT_NAME":"STARLINK-2468","NORAD_CAT_ID":"48127","ARG_OF_PERICENTER":"77.6114","BSTAR":"0.00007737200000","COUNTRY_CODE":"US","CENTER_NAME":"EARTH","MEAN_ELEMENT_THEORY":"SGP4","ELEMENT_SET_NO":"999","EPOCH":"2021-11-03T17:21:34.364160","SEMIMAJOR_AXIS":"6925.325","OBJECT_TYPE":"PAYLOAD","INCLINATION":"53.0558","MEAN_MOTION_DOT":"0.00000871","REF_FRAME":"TEME","REV_AT_EPOCH":"3322","MEAN_ANOMALY":"282.5038","LAUNCH_DATE":"2021-04-07","ECCENTRICITY":"0.00014520","MEAN_MOTION_DDOT":"0.0000000000000","PERIAPSIS":"546.184"},{"LAUNCH_DATE":"2021-04-07","MEAN_ANOMALY":"313.5060","ECCENTRICITY":"0.00017730","PERIAPSIS":"545.968","MEAN_MOTION_DDOT":"0.0000000000000","EPOCH":"2021-11-03T11:55:06.590784","ELEMENT_SET_NO":"999","INCLINATION":"53.0539","SEMIMAJOR_AXIS":"6925.331","OBJECT_TYPE":"PAYLOAD","MEAN_MOTION_DOT":"0.00000278","REF_FRAME":"TEME","REV_AT_EPOCH":"3416","FILE":"3199758","MEAN_MOTION":"15.06405792","DECAY_DATE":null,"OBJECT_NAME":"STARLINK-2469","CLASSIFICATION_TYPE":"U","OBJECT_ID":"2021-027AN","BSTAR":"0.00003754400000","ARG_OF_PERICENTER":"46.6076","NORAD_CAT_ID":"48128","COUNTRY_CODE":"US","CENTER_NAME":"EARTH","MEAN_ELEMENT_THEORY":"SGP4","TIME_SYSTEM":"UTC","TLE_LINE1":"1 48128U 21027AN  21307.49660406  .00000278  00000-0  37544-4 0  9997","APOAPSIS":"548.424","RA_OF_ASC_NODE":"26.7925","TLE_LINE2":"2 48128  53.0539  26.7925 0001773  46.6076 313.5060 15.06405792 34169","RCS_SIZE":"LARGE","SITE":"AFETR","GP_ID":"188828707","EPHEMERIS_TYPE":"0","PERIOD":"95.592"}];
